[{"OBJECT_NAME":"USA 153","OBJECT_ID":"2000-065A","EPOCH":"2022-08-18T21:11:25.870848","MEAN_MOTION":1.0027667,"ECCENTRICITY":5.64e-5,"INCLINATION":9.2025,"RA_OF_ASC_NODE":45.3522,"ARG_OF_PERICENTER":191.4075,"MEAN_ANOMALY":182.6496,"EPHEMERIS_TYPE":0,"CLASSIFICATION_TYPE":"U","NORAD_CAT_ID":26575,"ELEMENT_SET_NO":999,"REV_AT_EPOCH":1891,"BSTAR":0,"MEAN_MOTION_DOT":-3.33e-6,"MEAN_MOTION_DDOT":0},{"OBJECT_NAME":"AMC-6 (GE-6)","OBJECT_ID":"2000-067A","EPOCH":"2022-08-19T05:06:07.241184","MEAN_MOTION":1.00273454,"ECCENTRICITY":0.0002583,"INCLINATION":0.0405,"RA_OF_ASC_NODE":284.4796,"ARG_OF_PERICENTER":225.3995,"MEAN_ANOMALY":115.1757,"EPHEMERIS_TYPE":0,"CLASSIFICATION_TYPE":"U","NORAD_CAT_ID":26580,"ELEMENT_SET_NO":999,"REV_AT_EPOCH":7996,"BSTAR":0,"MEAN_MOTION_DOT":9.8e-7,"MEAN_MOTION_DDOT":0},{"OBJECT_NAME":"INTELSAT 1R (IS-1R)","OBJECT_ID":"2000-072A","EPOCH":"2022-08-18T21:18:05.178816","MEAN_MOTION":1.00271748,"ECCENTRICITY":6.12e-5,"INCLINATION":4.6169,"RA_OF_ASC_NODE":80.0702,"ARG_OF_PERICENTER":301.8432,"MEAN_ANOMALY":61.9173,"EPHEMERIS_TYPE":0,"CLASSIFICATION_TYPE":"U","NORAD_CAT_ID":26608,"ELEMENT_SET_NO":999,"REV_AT_EPOCH":2730,"BSTAR":0,"MEAN_MOTION_DOT":-1.48e-6,"MEAN_MOTION_DDOT":0},{"OBJECT_NAME":"ANIK F1","OBJECT_ID":"2000-076A","EPOCH":"2022-08-18T15:19:35.031360","MEAN_MOTION":1.00271982,"ECCENTRICITY":0.0010265,"INCLINATION":1.5891,"RA_OF_ASC_NODE":91.9251,"ARG_OF_PERICENTER":34.3946,"MEAN_ANOMALY":321.3228,"EPHEMERIS_TYPE":0,"CLASSIFICATION_TYPE":"U","NORAD_CAT_ID":26624,"ELEMENT_SET_NO":999,"REV_AT_EPOCH":2911,"BSTAR":0,"MEAN_MOTION_DOT":-6.9e-7,"MEAN_MOTION_DDOT":0},{"OBJECT_NAME":"ASTRA 2D","OBJECT_ID":"2000-081A","EPOCH":"2022-08-18T17:27:42.703776","MEAN_MOTION":1.00275483,"ECCENTRICITY":0.0001839,"INCLINATION":7.4204,"RA_OF_ASC_NODE":59.8815,"ARG_OF_PERICENTER":97.3663,"MEAN_ANOMALY":95.4396,"EPHEMERIS_TYPE":0,"CLASSIFICATION_TYPE":"U","NORAD_CAT_ID":26638,"ELEMENT_SET_NO":999,"REV_AT_EPOCH":3888,"BSTAR":0,"MEAN_MOTION_DOT":1.19e-6,"MEAN_MOTION_DDOT":0},{"OBJECT_NAME":"AMC-8 (GE-8)","OBJECT_ID":"2000-081B","EPOCH":"2022-08-18T14:33:40.139712","MEAN_MOTION":1.00272778,"ECCENTRICITY":0.0002774,"INCLINATION":2.5982,"RA_OF_ASC_NODE":87.944,"ARG_OF_PERICENTER":29.3604,"MEAN_ANOMALY":293.0606,"EPHEMERIS_TYPE":0,"CLASSIFICATION_TYPE":"U","NORAD_CAT_ID":26639,"ELEMENT_SET_NO":999,"REV_AT_EPOCH":7930,"BSTAR":0,"MEAN_MOTION_DOT":7.9e-7,"MEAN_MOTION_DDOT":0},{"OBJECT_NAME":"USA 157 (MILSTAR-2 2)","OBJECT_ID":"2001-009A","EPOCH":"2022-08-18T14:54:04.127904","MEAN_MOTION":1.00270287,"ECCENTRICITY":0.0003024,"INCLINATION":10.0624,"RA_OF_ASC_NODE":27.0189,"ARG_OF_PERICENTER":150.4391,"MEAN_ANOMALY":248.7819,"EPHEMERIS_TYPE":0,"CLASSIFICATION_TYPE":"U","NORAD_CAT_ID":26715,"ELEMENT_SET_NO":999,"REV_AT_EPOCH":1893,"BSTAR":0,"MEAN_MOTION_DOT":5.0e-8,"MEAN_MOTION_DDOT":0},{"OBJECT_NAME":"TITAN 4 CENTAUR R\/B","OBJECT_ID":"2001-009B","EPOCH":"2022-08-17T22:28:16.630176","MEAN_MOTION":1.00496057,"ECCENTRICITY":0.0019135,"INCLINATION":11.587,"RA_OF_ASC_NODE":20.9441,"ARG_OF_PERICENTER":99.5551,"MEAN_ANOMALY":260.7184,"EPHEMERIS_TYPE":0,"CLASSIFICATION_TYPE":"U","NORAD_CAT_ID":26716,"ELEMENT_SET_NO":999,"REV_AT_EPOCH":1219,"BSTAR":0,"MEAN_MOTION_DOT":-1.93e-6,"MEAN_MOTION_DDOT":0},{"OBJECT_NAME":"EUTELSAT 133 WEST A","OBJECT_ID":"2001-011A","EPOCH":"2022-08-18T20:38:13.175808","MEAN_MOTION":1.00274187,"ECCENTRICITY":0.0002195,"INCLINATION":3.8631,"RA_OF_ASC_NODE":82.1911,"ARG_OF_PERICENTER":76.9473,"MEAN_ANOMALY":344.7508,"EPHEMERIS_TYPE":0,"CLASSIFICATION_TYPE":"U","NORAD_CAT_ID":26719,"ELEMENT_SET_NO":999,"REV_AT_EPOCH":7852,"BSTAR":0,"MEAN_MOTION_DOT":6.8e-7,"MEAN_MOTION_DDOT":0},{"OBJECT_NAME":"INTELSAT 10 (IS-10)","OBJECT_ID":"2001-019A","EPOCH":"2022-08-18T19:40:38.706816","MEAN_MOTION":1.00273269,"ECCENTRICITY":0.0002372,"INCLINATION":5.7224,"RA_OF_ASC_NODE":72.8433,"ARG_OF_PERICENTER":66.7113,"MEAN_ANOMALY":300.5481,"EPHEMERIS_TYPE":0,"CLASSIFICATION_TYPE":"U","NORAD_CAT_ID":26766,"ELEMENT_SET_NO":999,"REV_AT_EPOCH":3160,"BSTAR":0,"MEAN_MOTION_DOT":2.5e-7,"MEAN_MOTION_DDOT":0},{"OBJECT_NAME":"INTELSAT 901 (IS-901)","OBJECT_ID":"2001-024A","EPOCH":"2022-08-18T20:34:42.650112","MEAN_MOTION":1.00272251,"ECCENTRICITY":0.0001018,"INCLINATION":0.047,"RA_OF_ASC_NODE":275.0108,"ARG_OF_PERICENTER":261.3829,"MEAN_ANOMALY":71.9459,"EPHEMERIS_TYPE":0,"CLASSIFICATION_TYPE":"U","NORAD_CAT_ID":26824,"ELEMENT_SET_NO":999,"REV_AT_EPOCH":895,"BSTAR":0,"MEAN_MOTION_DOT":-2.09e-6,"MEAN_MOTION_DDOT":0},{"OBJECT_NAME":"ASTRA 2C","OBJECT_ID":"2001-025A","EPOCH":"2022-08-18T12:32:42.621792","MEAN_MOTION":1.00274685,"ECCENTRICITY":0.0002743,"INCLINATION":4.7171,"RA_OF_ASC_NODE":78.7211,"ARG_OF_PERICENTER":73.4541,"MEAN_ANOMALY":290.3696,"EPHEMERIS_TYPE":0,"CLASSIFICATION_TYPE":"U","NORAD_CAT_ID":26853,"ELEMENT_SET_NO":999,"REV_AT_EPOCH":3102,"BSTAR":0,"MEAN_MOTION_DOT":-2.69e-6,"MEAN_MOTION_DDOT":0},{"OBJECT_NAME":"USA 159 (DSP 21)","OBJECT_ID":"2001-033A","EPOCH":"2022-08-18T20:18:49.076640","MEAN_MOTION":1.00273347,"ECCENTRICITY":9.32e-5,"INCLINATION":11.4793,"RA_OF_ASC_NODE":25.3967,"ARG_OF_PERICENTER":159.4554,"MEAN_ANOMALY":38.0091,"EPHEMERIS_TYPE":0,"CLASSIFICATION_TYPE":"U","NORAD_CAT_ID":26880,"ELEMENT_SET_NO":999,"REV_AT_EPOCH":1759,"BSTAR":0,"MEAN_MOTION_DOT":-3.06e-6,"MEAN_MOTION_DDOT":0},{"OBJECT_NAME":"IUS R\/B(2)","OBJECT_ID":"2001-033D","EPOCH":"2022-08-18T07:33:07.143264","MEAN_MOTION":0.99896633,"ECCENTRICITY":0.0009008,"INCLINATION":11.5791,"RA_OF_ASC_NODE":25.6722,"ARG_OF_PERICENTER":18.2063,"MEAN_ANOMALY":341.8857,"EPHEMERIS_TYPE":0,"CLASSIFICATION_TYPE":"U","NORAD_CAT_ID":26883,"ELEMENT_SET_NO":999,"REV_AT_EPOCH":1181,"BSTAR":0,"MEAN_MOTION_DOT":-3.0e-6,"MEAN_MOTION_DDOT":0},{"OBJECT_NAME":"COSMOS 2379","OBJECT_ID":"2001-037A","EPOCH":"2022-08-18T12:15:25.017408","MEAN_MOTION":1.00383206,"ECCENTRICITY":0.000405,"INCLINATION":12.0662,"RA_OF_ASC_NODE":23.7196,"ARG_OF_PERICENTER":148.0834,"MEAN_ANOMALY":45.5424,"EPHEMERIS_TYPE":0,"CLASSIFICATION_TYPE":"U","NORAD_CAT_ID":26892,"ELEMENT_SET_NO":999,"REV_AT_EPOCH":7683,"BSTAR":0,"MEAN_MOTION_DOT":-6.1e-7,"MEAN_MOTION_DDOT":0},{"OBJECT_NAME":"SL-12 R\/B(2)","OBJECT_ID":"2001-037D","EPOCH":"2022-08-18T20:49:16.141152","MEAN_MOTION":1.00361863,"ECCENTRICITY":0.0025308,"INCLINATION":12.0496,"RA_OF_ASC_NODE":23.927,"ARG_OF_PERICENTER":51.3015,"MEAN_ANOMALY":273.1383,"EPHEMERIS_TYPE":0,"CLASSIFICATION_TYPE":"U","NORAD_CAT_ID":26895,"ELEMENT_SET_NO":999,"REV_AT_EPOCH":7677,"BSTAR":0,"MEAN_MOTION_DOT":-7.6e-7,"MEAN_MOTION_DDOT":0},{"OBJECT_NAME":"INTELSAT 902 (IS-902)","OBJECT_ID":"2001-039A","EPOCH":"2022-08-18T20:18:34.009344","MEAN_MOTION":1.00271774,"ECCENTRICITY":0.0002586,"INCLINATION":2.5576,"RA_OF_ASC_NODE":88.3407,"ARG_OF_PERICENTER":59.5009,"MEAN_ANOMALY":73.8927,"EPHEMERIS_TYPE":0,"CLASSIFICATION_TYPE":"U","NORAD_CAT_ID":26900,"ELEMENT_SET_NO":999,"REV_AT_EPOCH":7667,"BSTAR":0,"MEAN_MOTION_DOT":-2.9e-6,"MEAN_MOTION_DDOT":0},{"OBJECT_NAME":"SL-12 R\/B(2)","OBJECT_ID":"2001-045D","EPOCH":"2022-08-18T12:11:46.527360","MEAN_MOTION":1.00315128,"ECCENTRICITY":0.002734,"INCLINATION":12.8137,"RA_OF_ASC_NODE":22.1196,"ARG_OF_PERICENTER":4.7582,"MEAN_ANOMALY":176.6074,"EPHEMERIS_TYPE":0,"CLASSIFICATION_TYPE":"U","NORAD_CAT_ID":26939,"ELEMENT_SET_NO":999,"REV_AT_EPOCH":7670,"BSTAR":0,"MEAN_MOTION_DOT":5.3e-7,"MEAN_MOTION_DDOT":0},{"OBJECT_NAME":"USA 164 (MILSTAR-2 3)","OBJECT_ID":"2002-001A","EPOCH":"2022-08-19T01:48:21.542112","MEAN_MOTION":1.00276801,"ECCENTRICITY":0.0002028,"INCLINATION":9.572,"RA_OF_ASC_NODE":28.7574,"ARG_OF_PERICENTER":143.0654,"MEAN_ANOMALY":201.6926,"EPHEMERIS_TYPE":0,"CLASSIFICATION_TYPE":"U","NORAD_CAT_ID":27168,"ELEMENT_SET_NO":999,"REV_AT_EPOCH":1762,"BSTAR":0,"MEAN_MOTION_DOT":9.3e-7,"MEAN_MOTION_DDOT":0},{"OBJECT_NAME":"ECHOSTAR 7","OBJECT_ID":"2002-006A","EPOCH":"2022-08-18T20:26:42.515808","MEAN_MOTION":0.99849306,"ECCENTRICITY":0.000436,"INCLINATION":0.3968,"RA_OF_ASC_NODE":93.5852,"ARG_OF_PERICENTER":17.154,"MEAN_ANOMALY":153.8396,"EPHEMERIS_TYPE":0,"CLASSIFICATION_TYPE":"U","NORAD_CAT_ID":27378,"ELEMENT_SET_NO":999,"REV_AT_EPOCH":3657,"BSTAR":0,"MEAN_MOTION_DOT":-1.52e-6,"MEAN_MOTION_DDOT":0},{"OBJECT_NAME":"INTELSAT 904 (IS-904)","OBJECT_ID":"2002-007A","EPOCH":"2022-08-18T20:24:28.111968","MEAN_MOTION":1.00272035,"ECCENTRICITY":0.0002913,"INCLINATION":3.3901,"RA_OF_ASC_NODE":85.2986,"ARG_OF_PERICENTER":72.609,"MEAN_ANOMALY":85.8824,"EPHEMERIS_TYPE":0,"CLASSIFICATION_TYPE":"U","NORAD_CAT_ID":27380,"ELEMENT_SET_NO":999,"REV_AT_EPOCH":3774,"BSTAR":0,"MEAN_MOTION_DOT":-2.22e-6,"MEAN_MOTION_DDOT":0},{"OBJECT_NAME":"TDRS 9","OBJECT_ID":"2002-011A","EPOCH":"2022-08-18T11:38:29.986656","MEAN_MOTION":1.00269328,"ECCENTRICITY":0.002195,"INCLINATION":9.1476,"RA_OF_ASC_NODE":60.2441,"ARG_OF_PERICENTER":300.7547,"MEAN_ANOMALY":78.1883,"EPHEMERIS_TYPE":0,"CLASSIFICATION_TYPE":"U","NORAD_CAT_ID":27389,"ELEMENT_SET_NO":999,"REV_AT_EPOCH":7641,"BSTAR":0,"MEAN_MOTION_DOT":-2.98e-6,"MEAN_MOTION_DDOT":0},{"OBJECT_NAME":"ASTRA 3A","OBJECT_ID":"2002-015B","EPOCH":"2022-08-18T13:14:41.982720","MEAN_MOTION":1.00273622,"ECCENTRICITY":0.0001791,"INCLINATION":7.5213,"RA_OF_ASC_NODE":58.766,"ARG_OF_PERICENTER":112.8783,"MEAN_ANOMALY":267.1514,"EPHEMERIS_TYPE":0,"CLASSIFICATION_TYPE":"U","NORAD_CAT_ID":27400,"ELEMENT_SET_NO":999,"REV_AT_EPOCH":7470,"BSTAR":0,"MEAN_MOTION_DOT":-2.14e-6,"MEAN_MOTION_DDOT":0},{"OBJECT_NAME":"NSS-7","OBJECT_ID":"2002-019A","EPOCH":"2022-08-18T20:34:42.650112","MEAN_MOTION":1.00271849,"ECCENTRICITY":0.0002308,"INCLINATION":6.0406,"RA_OF_ASC_NODE":70.8016,"ARG_OF_PERICENTER":92.8805,"MEAN_ANOMALY":92.1891,"EPHEMERIS_TYPE":0,"CLASSIFICATION_TYPE":"U","NORAD_CAT_ID":27414,"ELEMENT_SET_NO":999,"REV_AT_EPOCH":7454,"BSTAR":0,"MEAN_MOTION_DOT":-1.67e-6,"MEAN_MOTION_DDOT":0}]